0 INMARSAT 2-F1
1 20918U 90093A   13281.15169130 -.00000241  00000-0  10000-3 0  6452
2 20918 009.7014 040.0051 0003005 193.2309 166.7668 00.98878267 80427
0 INMARSAT 2-F1
1 20918U 90093A   13282.16299028 -.00000238  00000-0  10000-3 0  6461
2 20918 009.7031 039.9946 0003038 192.6491 167.3465 00.98877985 80436
0 INMARSAT 2-F1
1 20918U 90093A   13282.16299028 -.00000238  00000-0  10000-3 0  6472
2 20918 009.7031 039.9946 0003038 192.6491 167.3465 00.98877985 80436
0 INMARSAT 2-F1
1 20918U 90093A   13282.16299028 -.00000238  00000-0  10000-3 0  6483
2 20918 009.7031 039.9946 0003038 192.6491 167.3465 00.98877985 80436
0 INMARSAT 2-F1
1 20918U 90093A   13286.20825294 -.00000189  00000-0  10000-3 0  6498
2 20918 009.7094 039.9560 0003005 193.6732 166.3244 00.98876575 80472
0 INMARSAT 2-F1
1 20918U 90093A   13286.20825294 -.00000189  00000-0  10000-3 0  6500
2 20918 009.7094 039.9560 0003005 193.6732 166.3244 00.98876575 80472
0 INMARSAT 2-F1
1 20918U 90093A   13286.20825294 -.00000189  00000-0  10000-3 0  6511
2 20918 009.7094 039.9560 0003005 193.6732 166.3244 00.98876575 80472
0 INMARSAT 2-F1
1 20918U 90093A   13286.20825294 -.00000189  00000-0  10000-3 0  6522
2 20918 009.7094 039.9560 0003005 193.6732 166.3244 00.98876575 80472
0 INMARSAT 2-F1
1 20918U 90093A   13288.23087171 -.00000147  00000-0  10000-3 0  6536
2 20918 009.7126 039.9357 0003012 193.9508 166.0328 00.98875811 80498
0 INMARSAT 2-F1
1 20918U 90093A   13288.23087171 -.00000147  00000-0  10000-3 0  6547
2 20918 009.7126 039.9357 0003012 193.9508 166.0328 00.98875811 80498
0 INMARSAT 2-F1
1 20918U 90093A   13289.24218286 -.00000123  00000-0  10000-3 0  6557
2 20918 009.7145 039.9259 0003233 194.9227 165.0501 00.98875451 80508
0 INMARSAT 2-F1
1 20918U 90093A   13290.25349480 -.00000099  00000-0  10000-3 0  6564
2 20918 009.7162 039.9161 0003291 195.1298 164.8338 00.98875133 80517
0 INMARSAT 2-F1
1 20918U 90093A   13290.25349748 -.00000099  00000-0  10000-3 0  6572
2 20918 009.7163 039.9160 0003300 195.4032 164.5611 00.98875132 80517
0 INMARSAT 2-F1
1 20918U 90093A   13292.27612775 -.00000051  00000-0  10000-3 0  6588
2 20918 009.7196 039.8965 0003486 198.0820 161.8619 00.98874627 80532
0 INMARSAT 2-F1
1 20918U 90093A   13292.27612775 -.00000051  00000-0  10000-3 0  6599
2 20918 009.7196 039.8965 0003486 198.0820 161.8619 00.98874627 80532
0 INMARSAT 2-F1
1 20918U 90093A   13293.28745783 -.00000029  00000-0  10000-3 0  6604
2 20918 009.7212 039.8867 0003485 198.1012 161.8383 00.98874453 80541
0 INMARSAT 2-F1
1 20918U 90093A   13294.29879474 -.00000009  00000-0  10000-3 0  6621
2 20918 009.7232 039.8773 0003532 197.6776 162.2608 00.98874359 80554
